STARLINK-2022           
1 47643U 21012Z   24020.10990130  .00022622  00000+0  15314-2 0  9990
2 47643  53.0546 311.2924 0001142 110.8431 249.2680 15.06431866162760
